NORAD_CAT_ID,OBJECT_NAME,OBJECT_TYPE,EPOCH,MEAN_MOTION,ECCENTRICITY,INCLINATION,RA_OF_ASC_NODE,ARG_OF_PERICENTER,MEAN_ANOMALY,BSTAR,MEAN_MOTION_DOT,MEAN_MOTION_DDOT,TLE_LINE0,TLE_LINE1,TLE_LINE2,SEMIMAJOR_AXIS,PERIOD,APOGEE,PERIGEE,DECAYED
53579.0,STARLINK-4580,PAYLOAD,2023-04-11 11:43:12,15.08851349,0.0001132,53.2141,146.6088,95.1103,265.0018,0.00038634,5.868e-05,0.0,0 STARLINK-4580,1 53579U 22101BE  23101.48834198  .00005868  00000-0  38634-3 0  9991,2 53579  53.2141 146.6088 0001132  95.1103 265.0018 15.08851349 35943,6917.846,95.437,540.494,538.928,0.0
53579.0,STARLINK-4580,PAYLOAD,2023-04-11 19:40:08,15.08845017,0.0001201,53.2137,145.1217,91.9894,268.1235,0.00031638,4.752e-05,0.0,0 STARLINK-4580,1 53579U 22101BE  23101.81954361  .00004752  00000-0  31638-3 0  9991,2 53579  53.2137 145.1217 0001201  91.9894 268.1235 15.08845017 35999,6917.865,95.437,540.561,538.899,0.0
53579.0,STARLINK-4580,PAYLOAD,2023-04-12 09:58:37,15.08832997,0.0001233,53.2151,142.4461,98.4487,261.6645,-5.2392e-06,-3.71e-06,0.0,0 STARLINK-4580,1 53579U 22101BE  23102.41570954 -.00000371  00000-0 -52392-5 0  9997,2 53579  53.2151 142.4461 0001233  98.4487 261.6645 15.08832997 36088,6917.902,95.438,540.62,538.914,0.0
53579.0,STARLINK-4580,PAYLOAD,2023-04-13 09:49:24,15.08840785,0.0001276,53.2153,137.9857,91.7666,268.3472,5.1738e-05,5.36e-06,0.0,0 STARLINK-4580,1 53579U 22101BE  23103.40930792  .00000536  00000-0  51738-4 0  9990,2 53579  53.2153 137.9857 0001276  91.7666 268.3472 15.08840785 36233,6917.878,95.438,540.626,538.86,0.0
53579.0,STARLINK-4580,PAYLOAD,2023-04-13 19:21:43,15.08841071,0.000133,53.2152,136.2012,83.6072,276.5071,7.6544e-05,9.31e-06,0.0,0 STARLINK-4580,1 53579U 22101BE  23103.80674866  .00000931  00000-0  76544-4 0  9992,2 53579  53.2152 136.2012 0001330  83.6072 276.5071 15.08841071 36290,6917.877,95.437,540.662,538.822,0.0
53579.0,STARLINK-4580,PAYLOAD,2023-04-14 09:40:11,15.08843998,0.0001254,53.2146,133.5241,84.9221,275.1914,0.00019132,2.759e-05,0.0,0 STARLINK-4580,1 53579U 22101BE  23104.40290819  .00002759  00000-0  19132-3 0  9990,2 53579  53.2146 133.5241 0001254  84.9221 275.1914 15.08843998 36383,6917.868,95.437,540.601,538.866,0.0
53579.0,STARLINK-4580,PAYLOAD,2023-04-15 07:55:37,15.08808732,0.000182,53.2148,129.3615,89.5587,270.5614,-0.00030183,-5.084e-05,0.0,0 STARLINK-4580,1 53579U 22101BE  23105.33029548 -.00005084  00000-0 -30183-3 0  9997,2 53579  53.2148 129.3615 0001820  89.5587 270.5614 15.08808732 36527,6917.976,95.44,541.1,538.582,0.0
53579.0,STARLINK-4580,PAYLOAD,2023-04-15 19:03:18,15.08832299,0.0001454,53.2151,127.2805,83.3662,276.7496,9.1889e-05,1.174e-05,0.0,0 STARLINK-4580,1 53579U 22101BE  23105.79396893  .00001174  00000-0  91889-4 0  9992,2 53579  53.2151 127.2805 0001454  83.3662 276.7496 15.08832299 36596,6917.904,95.438,540.775,538.763,0.0
53579.0,STARLINK-4580,PAYLOAD,2023-04-16 10:57:10,15.08850014,0.0001525,53.2137,124.306,85.8879,274.2287,0.00091444,0.00014299,0.0,0 STARLINK-4580,1 53579U 22101BE  23106.45637087  .00014299  00000-0  91444-3 0  9997,2 53579  53.2137 124.3060 0001525  85.8879 274.2287 15.08850014 36694,6917.85,95.437,540.77,538.66,0.0
53579.0,STARLINK-4580,PAYLOAD,2023-04-17 06:01:47,15.08866507,0.0001531,53.2134,120.7365,87.8597,272.2571,0.00063678,9.868e-05,0.0,0 STARLINK-4580,1 53579U 22101BE  23107.25124017  .00009868  00000-0  63678-3 0  9994,2 53579  53.2134 120.7365 0001531  87.8597 272.2571 15.08866507 36817,6917.799,95.436,540.723,538.605,0.0
53579.0,STARLINK-4580,PAYLOAD,2023-04-18 05:52:33,15.08846391,0.0001527,53.2136,116.2757,99.2429,260.8736,3.0779e-05,2.02e-06,0.0,0 STARLINK-4580,1 53579U 22101BE  23108.24483700  .00000202  00000-0  30779-4 0  9991,2 53579  53.2136 116.2757 0001527  99.2429 260.8736 15.08846391 36961,6917.861,95.437,540.782,538.669,0.0
53579.0,STARLINK-4580,PAYLOAD,2023-04-18 17:00:15,15.08845821,0.0001534,53.2139,114.1951,94.788,265.3287,-4.8647e-05,-1.062e-05,0.0,0 STARLINK-4580,1 53579U 22101BE  23108.70851581 -.00001062  00000-0 -48647-4 0  9998,2 53579  53.2139 114.1951 0001534  94.7880 265.3287 15.08845821 37033,6917.863,95.437,540.789,538.666,0.0
53579.0,STARLINK-4580,PAYLOAD,2023-04-19 04:07:58,15.08839775,0.0001663,53.2164,112.1139,106.1617,253.9558,-6.3767e-05,-1.303e-05,0.0,0 STARLINK-4580,1 53579U 22101BE  23109.17220351 -.00001303  00000-0 -63767-4 0  9993,2 53579  53.2164 112.1139 0001663 106.1617 253.9558 15.08839775 37109,6917.881,95.438,540.897,538.596,0.0
53579.0,STARLINK-4580,PAYLOAD,2023-04-19 05:43:21,15.08840108,0.0001678,53.2163,111.8165,106.9415,253.1762,-6.4462e-05,-1.314e-05,0.0,0 STARLINK-4580,1 53579U 22101BE  23109.23844292 -.00001314  00000-0 -64462-4 0  9991,2 53579  53.2163 111.8165 0001678 106.9415 253.1762 15.08840108 37115,6917.88,95.438,540.906,538.584,0.0
53579.0,STARLINK-4580,PAYLOAD,2023-04-19 16:51:03,15.08838273,0.00016,53.2165,109.7351,103.0402,257.0769,3.3983e-07,-2.83e-06,0.0,0 STARLINK-4580,1 53579U 22101BE  23109.70212220 -.00000283  00000-0  33983-6 0  9992,2 53579  53.2165 109.7351 0001600 103.0402 257.0769 15.08838273 37186,6917.886,95.438,540.858,538.644,0.0
53579.0,STARLINK-4580,PAYLOAD,2023-04-20 08:44:54,15.08839658,0.0001572,53.2166,106.7613,102.9948,257.1219,6.0357e-05,6.73e-06,0.0,0 STARLINK-4580,1 53579U 22101BE  23110.36452002  .00000673  00000-0  60357-4 0  9995,2 53579  53.2166 106.7613 0001572 102.9948 257.1219 15.08839658 37286,6917.881,95.438,540.834,538.659,0.0
53579.0,STARLINK-4580,PAYLOAD,2023-04-20 16:41:49,15.0885467,0.0001515,53.2167,105.2741,99.4189,260.6974,-0.00016322,-2.886e-05,0.0,0 STARLINK-4580,1 53579U 22101BE  23110.69571526 -.00002886  00000-0 -16322-3 0  9996,2 53579  53.2167 105.2741 0001515  99.4189 260.6974 15.08854670 37331,6917.836,95.437,540.749,538.652,0.0
53579.0,STARLINK-4580,PAYLOAD,2023-04-21 05:24:55,15.08832987,0.0001425,53.2161,102.8944,90.544,269.5715,5.3034e-05,5.56e-06,0.0,0 STARLINK-4580,1 53579U 22101BE  23111.22564636  .00000556  00000-0  53034-4 0  9992,2 53579  53.2161 102.8944 0001425  90.5440 269.5715 15.08832987 37412,6917.902,95.438,540.753,538.781,0.0
53579.0,STARLINK-4580,PAYLOAD,2023-04-21 16:32:37,15.08835841,0.0001511,53.2164,100.8115,87.275,272.8415,4.4357e-05,4.18e-06,0.0,0 STARLINK-4580,1 53579U 22101BE  23111.68932623  .00000418  00000-0  44357-4 0  9992,2 53579  53.2164 100.8115 0001511  87.2750 272.8415 15.08835841 37489,6917.893,95.438,540.803,538.713,0.0
53579.0,STARLINK-4580,PAYLOAD,2023-04-22 05:15:42,15.08831911,0.0001383,53.2159,98.4329,89.1627,270.9523,0.00015226,2.136e-05,0.0,0 STARLINK-4580,1 53579U 22101BE  23112.21924681  .00002136  00000-0  15226-3 0  9998,2 53579  53.2159  98.4329 0001383  89.1627 270.9523 15.08831911 37565,6917.905,95.438,540.727,538.813,0.0
53579.0,STARLINK-4580,PAYLOAD,2023-04-22 16:23:24,15.08837333,0.0001479,53.2159,96.3517,88.0143,272.1018,0.00014278,1.985e-05,0.0,0 STARLINK-4580,1 53579U 22101BE  23112.68292250  .00001985  00000-0  14278-3 0  9996,2 53579  53.2159  96.3517 0001479  88.0143 272.1018 15.08837333 37633,6917.889,95.438,540.777,538.73,0.0
53579.0,STARLINK-4580,PAYLOAD,2023-04-23 05:06:29,15.08841746,0.0001435,53.2159,93.9727,86.379,273.7366,8.6644e-05,1.091e-05,0.0,0 STARLINK-4580,1 53579U 22101BE  23113.21284015  .00001091  00000-0  86644-4 0  9991,2 53579  53.2159  93.9727 0001435  86.3790 273.7366 15.08841746 37715,6917.875,95.437,540.733,538.747,0.0
53579.0,STARLINK-4580,PAYLOAD,2023-04-24 08:08:01,15.08859592,0.0001358,53.2157,88.9166,90.4863,269.6284,0.00016867,2.399e-05,0.0,0 STARLINK-4580,1 53579U 22101BE  23114.33890582  .00002399  00000-0  16867-3 0  9998,2 53579  53.2157  88.9166 0001358  90.4863 269.6284 15.08859592 37884,6917.821,95.436,540.625,538.746,0.0
53579.0,STARLINK-4580,PAYLOAD,2023-04-25 07:58:49,15.08841781,0.0001311,53.217,84.4563,100.4464,259.6676,6.3348e-05,7.2e-06,0.0,0 STARLINK-4580,1 53579U 22101BE  23115.33251593  .00000720  00000-0  63348-4 0  9995,2 53579  53.2170  84.4563 0001311 100.4464 259.6676 15.08841781 38032,6917.875,95.437,540.647,538.833,0.0
53579.0,STARLINK-4580,PAYLOAD,2023-04-26 07:49:38,15.08829322,0.0001237,53.2163,79.9968,95.4136,264.6998,-0.00010999,-2.037e-05,0.0,0 STARLINK-4580,1 53579U 22101BE  23116.32613479 -.00002037  00000-0 -10999-3 0  9998,2 53579  53.2163  79.9968 0001237  95.4136 264.6998 15.08829322 38184,6917.913,95.438,540.634,538.922,0.0
53579.0,STARLINK-4580,PAYLOAD,2023-04-27 04:29:38,15.08840198,0.0001168,53.2175,76.1323,106.5713,253.5407,0.00011554,1.551e-05,0.0,0 STARLINK-4580,1 53579U 22101BE  23117.18724575  .00001551  00000-0  11554-3 0  9999,2 53579  53.2175  76.1323 0001168 106.5713 253.5407 15.08840198 38310,6917.88,95.438,540.553,538.937,0.0
53579.0,STARLINK-4580,PAYLOAD,2023-04-28 05:55:48,15.08844851,0.0001175,53.2179,71.3752,114.2245,245.887,0.00031585,4.743e-05,0.0,0 STARLINK-4580,1 53579U 22101BE  23118.24708501  .00004743  00000-0  31585-3 0  9990,2 53579  53.2179  71.3752 0001175 114.2245 245.8870 15.08844851 38476,6917.866,95.437,540.543,538.918,0.0
53579.0,STARLINK-4580,PAYLOAD,2023-04-28 13:52:44,15.08839688,0.0001289,53.2175,69.8893,97.6067,262.5071,9.8923e-05,1.287e-05,0.0,0 STARLINK-4580,1 53579U 22101BE  23118.57829041  .00001287  00000-0  98923-4 0  9999,2 53579  53.2175  69.8893 0001289  97.6067 262.5071 15.08839688 38529,6917.881,95.438,540.638,538.855,0.0
53579.0,STARLINK-4580,PAYLOAD,2023-04-29 05:46:35,15.08841615,0.0001345,53.2181,66.9154,94.4355,265.6791,1.7547e-05,-9e-08,0.0,0 STARLINK-4580,1 53579U 22101BE  23119.24068996 -.00000009  00000-0  17547-4 0  9993,2 53579  53.2181  66.9154 0001345  94.4355 265.6791 15.08841615 38629,6917.875,95.437,540.671,538.81,0.0
53579.0,STARLINK-4580,PAYLOAD,2023-04-29 20:05:03,15.08841727,0.0001298,53.2175,64.2363,89.2545,270.8595,1.0184e-05,-1.26e-06,0.0,0 STARLINK-4580,1 53579U 22101BE  23119.83685025 -.00000126  00000-0  10184-4 0  9996,2 53579  53.2175  64.2363 0001298  89.2545 270.8595 15.08841727 38719,6917.875,95.437,540.638,538.842,0.0
